[{"OBJECT_NAME":"CZ-2D R/B","OBJECT_ID":"2005-024B","EPOCH":"2026-03-02T23:21:30.273120","MEAN_MOTION":15.59437813,"ECCENTRICITY":0.0006803,"INCLINATION":97.3596,"RA_OF_ASC_NODE":76.8759,"ARG_OF_PERICENTER":63.5558,"MEAN_ANOMALY":296.6395,"EPHEMERIS_TYPE":0,"CLASSIFICATION_TYPE":"U","NORAD_CAT_ID":28738,"ELEMENT_SET_NO":999,"REV_AT_EPOCH":13873,"BSTAR":0.0005703734,"MEAN_MOTION_DOT":0.00045211,"MEAN_MOTION_DDOT":0},{"OBJECT_NAME":"ALOS (DAICHI)","OBJECT_ID":"2006-002A","EPOCH":"2026-03-02T21:35:10.205088","MEAN_MOTION":14.69783069,"ECCENTRICITY":0.00011841,"INCLINATION":98.1206,"RA_OF_ASC_NODE":17.8895,"ARG_OF_PERICENTER":51.1652,"MEAN_ANOMALY":308.966,"EPHEMERIS_TYPE":0,"CLASSIFICATION_TYPE":"U","NORAD_CAT_ID":28931,"ELEMENT_SET_NO":999,"REV_AT_EPOCH":7248,"BSTAR":0.00029745922,"MEAN_MOTION_DOT":1.726e-5,"MEAN_MOTION_DDOT":0},{"OBJECT_NAME":"H-2A R/B","OBJECT_ID":"2006-002B","EPOCH":"2026-03-02T22:39:38.484288","MEAN_MOTION":15.16243282,"ECCENTRICITY":0.00519535,"INCLINATION":98.2396,"RA_OF_ASC_NODE":208.3895,"ARG_OF_PERICENTER":264.2394,"MEAN_ANOMALY":95.2912,"EPHEMERIS_TYPE":0,"CLASSIFICATION_TYPE":"U","NORAD_CAT_ID":28932,"ELEMENT_SET_NO":999,"REV_AT_EPOCH":9341,"BSTAR":0.00058335957,"MEAN_MOTION_DOT":0.00011604,"MEAN_MOTION_DDOT":0},{"OBJECT_NAME":"RESURS-DK 1","OBJECT_ID":"2006-021A","EPOCH":"2026-03-02T22:09:03.102912","MEAN_MOTION":15.12689731,"ECCENTRICITY":0.00024645,"INCLINATION":69.9302,"RA_OF_ASC_NODE":254.5281,"ARG_OF_PERICENTER":165.6259,"MEAN_ANOMALY":194.4978,"EPHEMERIS_TYPE":0,"CLASSIFICATION_TYPE":"U","NORAD_CAT_ID":29228,"ELEMENT_SET_NO":999,"REV_AT_EPOCH":8650,"BSTAR":0.0001803074,"MEAN_MOTION_DOT":3.056e-5,"MEAN_MOTION_DDOT":0},{"OBJECT_NAME":"CZ-4B R/B","OBJECT_ID":"2006-046C","EPOCH":"2026-03-02T16:22:59.319264","MEAN_MOTION":15.16816042,"ECCENTRICITY":0.00318554,"INCLINATION":97.5608,"RA_OF_ASC_NODE":106.61,"ARG_OF_PERICENTER":292.862,"MEAN_ANOMALY":66.925,"EPHEMERIS_TYPE":0,"CLASSIFICATION_TYPE":"U","NORAD_CAT_ID":29507,"ELEMENT_SET_NO":999,"REV_AT_EPOCH":5898,"BSTAR":0.00029130378,"MEAN_MOTION_DOT":5.73e-5,"MEAN_MOTION_DDOT":0},{"OBJECT_NAME":"CZ-2C R/B","OBJECT_ID":"2007-010B","EPOCH":"2026-03-02T21:24:47.999808","MEAN_MOTION":14.20243291,"ECCENTRICITY":0.0058086,"INCLINATION":98.3977,"RA_OF_ASC_NODE":175.512,"ARG_OF_PERICENTER":314.7333,"MEAN_ANOMALY":44.9124,"EPHEMERIS_TYPE":0,"CLASSIFICATION_TYPE":"U","NORAD_CAT_ID":31114,"ELEMENT_SET_NO":999,"REV_AT_EPOCH":97875,"BSTAR":8.2015273e-5,"MEAN_MOTION_DOT":1.37e-6,"MEAN_MOTION_DDOT":0},{"OBJECT_NAME":"COSMO-SKYMED 1","OBJECT_ID":"2007-023A","EPOCH":"2026-03-02T23:28:27.306048","MEAN_MOTION":14.96470479,"ECCENTRICITY":8.265e-5,"INCLINATION":97.8862,"RA_OF_ASC_NODE":252.957,"ARG_OF_PERICENTER":86.3868,"MEAN_ANOMALY":273.7447,"EPHEMERIS_TYPE":0,"CLASSIFICATION_TYPE":"U","NORAD_CAT_ID":31598,"ELEMENT_SET_NO":999,"REV_AT_EPOCH":1390,"BSTAR":0.00033657838,"MEAN_MOTION_DOT":3.761e-5,"MEAN_MOTION_DDOT":0},{"OBJECT_NAME":"COSMOS 2428","OBJECT_ID":"2007-029A","EPOCH":"2026-03-02T21:07:10.634880","MEAN_MOTION":14.12944293,"ECCENTRICITY":0.00087347,"INCLINATION":70.9419,"RA_OF_ASC_NODE":217.6361,"ARG_OF_PERICENTER":284.2813,"MEAN_ANOMALY":75.7338,"EPHEMERIS_TYPE":0,"CLASSIFICATION_TYPE":"U","NORAD_CAT_ID":31792,"ELEMENT_SET_NO":999,"REV_AT_EPOCH":96313,"BSTAR":7.0674548e-5,"MEAN_MOTION_DOT":8.4e-7,"MEAN_MOTION_DDOT":0},{"OBJECT_NAME":"SL-16 R/B","OBJECT_ID":"2007-029B","EPOCH":"2026-03-02T19:03:40.608864","MEAN_MOTION":14.14834082,"ECCENTRICITY":0.00024173,"INCLINATION":70.9755,"RA_OF_ASC_NODE":186.8781,"ARG_OF_PERICENTER":278.4023,"MEAN_ANOMALY":233.4083,"EPHEMERIS_TYPE":0,"CLASSIFICATION_TYPE":"U","NORAD_CAT_ID":31793,"ELEMENT_SET_NO":999,"REV_AT_EPOCH":96439,"BSTAR":-7.2517866e-5,"MEAN_MOTION_DOT":-1.88e-6,"MEAN_MOTION_DDOT":0},{"OBJECT_NAME":"KORONAS-FOTON","OBJECT_ID":"2009-003A","EPOCH":"2026-03-02T16:43:04.304640","MEAN_MOTION":15.43119406,"ECCENTRICITY":0.00106864,"INCLINATION":82.4283,"RA_OF_ASC_NODE":283.149,"ARG_OF_PERICENTER":173.5665,"MEAN_ANOMALY":186.5722,"EPHEMERIS_TYPE":0,"CLASSIFICATION_TYPE":"U","NORAD_CAT_ID":33504,"ELEMENT_SET_NO":999,"REV_AT_EPOCH":94466,"BSTAR":0.0002986688,"MEAN_MOTION_DOT":0.0001328,"MEAN_MOTION_DDOT":0},{"OBJECT_NAME":"CZ-2C R/B","OBJECT_ID":"2011-030B","EPOCH":"2026-03-02T20:31:22.856160","MEAN_MOTION":14.81188763,"ECCENTRICITY":0.00530549,"INCLINATION":97.853,"RA_OF_ASC_NODE":19.2554,"ARG_OF_PERICENTER":14.2735,"MEAN_ANOMALY":39.304,"EPHEMERIS_TYPE":0,"CLASSIFICATION_TYPE":"U","NORAD_CAT_ID":37731,"ELEMENT_SET_NO":999,"REV_AT_EPOCH":78908,"BSTAR":0.00027443695,"MEAN_MOTION_DOT":2.133e-5,"MEAN_MOTION_DDOT":0},{"OBJECT_NAME":"H-2A R/B","OBJECT_ID":"2012-025E","EPOCH":"2026-03-02T21:39:21.657600","MEAN_MOTION":14.95093298,"ECCENTRICITY":0.00440121,"INCLINATION":98.4711,"RA_OF_ASC_NODE":28.4055,"ARG_OF_PERICENTER":336.6891,"MEAN_ANOMALY":23.2331,"EPHEMERIS_TYPE":0,"CLASSIFICATION_TYPE":"U","NORAD_CAT_ID":38341,"ELEMENT_SET_NO":999,"REV_AT_EPOCH":74720,"BSTAR":0.0004464152,"MEAN_MOTION_DOT":4.919e-5,"MEAN_MOTION_DDOT":0},{"OBJECT_NAME":"SHIJIAN-16 (SJ-16)","OBJECT_ID":"2013-057A","EPOCH":"2026-03-02T23:48:37.078848","MEAN_MOTION":14.92303496,"ECCENTRICITY":0.00157558,"INCLINATION":74.9725,"RA_OF_ASC_NODE":197.7651,"ARG_OF_PERICENTER":129.9036,"MEAN_ANOMALY":230.3541,"EPHEMERIS_TYPE":0,"CLASSIFICATION_TYPE":"U","NORAD_CAT_ID":39358,"ELEMENT_SET_NO":999,"REV_AT_EPOCH":67050,"BSTAR":0.00019776754,"MEAN_MOTION_DOT":1.996e-5,"MEAN_MOTION_DDOT":0},{"OBJECT_NAME":"SL-4 R/B","OBJECT_ID":"2014-021B","EPOCH":"2026-03-02T13:13:48.462240","MEAN_MOTION":15.38895466,"ECCENTRICITY":0.0098188,"INCLINATION":51.6078,"RA_OF_ASC_NODE":12.0953,"ARG_OF_PERICENTER":76.9823,"MEAN_ANOMALY":284.2101,"EPHEMERIS_TYPE":0,"CLASSIFICATION_TYPE":"U","NORAD_CAT_ID":39679,"ELEMENT_SET_NO":999,"REV_AT_EPOCH":65517,"BSTAR":0.00039625,"MEAN_MOTION_DOT":0.00017915,"MEAN_MOTION_DDOT":0},{"OBJECT_NAME":"ALOS-2","OBJECT_ID":"2014-029A","EPOCH":"2026-03-02T22:56:04.856064","MEAN_MOTION":14.79467872,"ECCENTRICITY":0.00014443,"INCLINATION":97.9201,"RA_OF_ASC_NODE":160.6505,"ARG_OF_PERICENTER":99.9499,"MEAN_ANOMALY":260.1875,"EPHEMERIS_TYPE":0,"CLASSIFICATION_TYPE":"U","NORAD_CAT_ID":39766,"ELEMENT_SET_NO":999,"REV_AT_EPOCH":63587,"BSTAR":0.00015945407,"MEAN_MOTION_DOT":1.139e-5,"MEAN_MOTION_DDOT":0},{"OBJECT_NAME":"YAOGAN-29","OBJECT_ID":"2015-069A","EPOCH":"2026-03-02T23:30:52.388928","MEAN_MOTION":14.82987974,"ECCENTRICITY":0.00023,"INCLINATION":98.0153,"RA_OF_ASC_NODE":90.3911,"ARG_OF_PERICENTER":48.1811,"MEAN_ANOMALY":311.9598,"EPHEMERIS_TYPE":0,"CLASSIFICATION_TYPE":"U","NORAD_CAT_ID":41038,"ELEMENT_SET_NO":999,"REV_AT_EPOCH":55488,"BSTAR":0.00011844217,"MEAN_MOTION_DOT":9.08e-6,"MEAN_MOTION_DDOT":0},{"OBJECT_NAME":"ASTRO-H (HITOMI)","OBJECT_ID":"2016-012A","EPOCH":"2026-03-02T22:58:56.656416","MEAN_MOTION":15.09945805,"ECCENTRICITY":0.00100259,"INCLINATION":31.0004,"RA_OF_ASC_NODE":39.988,"ARG_OF_PERICENTER":264.2763,"MEAN_ANOMALY":95.6732,"EPHEMERIS_TYPE":0,"CLASSIFICATION_TYPE":"U","NORAD_CAT_ID":41337,"ELEMENT_SET_NO":999,"REV_AT_EPOCH":55121,"BSTAR":0.0002508156,"MEAN_MOTION_DOT":4.269e-5,"MEAN_MOTION_DDOT":0}]
